H1 CPF 01  gfz 2021 10 09 00  7821 terrasarx 
H2 0702601  6201 31698    2021 10 09 00 59 42 2021 10 14 00 00 42   120 1 1  0 0 0
H9
10 0 59500  22302.000000  0    6739754.510   -115509.749   1416305.483
10 0 59500  22422.000000  0    6862970.362   -298289.905    520940.531
10 0 59500  22542.000000  0    6863079.683   -476936.545   -383594.293
10 0 59500  22662.000000  0    6740256.912   -646178.305  -1281381.471
10 0 59500  22782.000000  0    6496934.900   -800935.886  -2156641.611
10 0 59500  22902.000000  0    6137749.933   -936450.661  -2994018.190
10 0 59500  23022.000000  0    5669443.464  -1048405.643  -3778851.386
10 0 59500  23142.000000  0    5100723.601  -1133035.457  -4497435.948
10 0 59500  23262.000000  0    4442090.798  -1187222.476  -5137257.547
10 0 59500  23382.000000  0    3705633.271  -1208578.078  -5687204.691
10 0 59500  23502.000000  0    2904795.750  -1195507.607  -6137752.807
10 0 59500  23622.000000  0    2054128.274  -1147256.640  -6481117.953
10 0 59500  23742.000000  0    1169020.060  -1063937.921  -6711380.249
10 0 59500  23862.000000  0     265422.857   -946540.632  -6824575.752
10 0 59500  23982.000000  0    -640432.111   -796920.284  -6818757.313
10 0 59500  24102.000000  0   -1532318.786   -617769.959  -6694024.235
10 0 59500  24222.000000  0   -2394300.691   -412572.857  -6452520.874
10 0 59500  24342.000000  0   -3211009.117   -185537.212  -6098402.481
10 0 59500  24462.000000  0   -3967911.698     58485.574  -5637772.208
10 0 59500  24582.000000  0   -4651571.242    314098.922  -5078586.848
10 0 59500  24702.000000  0   -5249886.856    575472.885  -4430530.625
10 0 59500  24822.000000  0   -5752315.962    836469.032  -3704859.713
10 0 59500  24942.000000  0   -6150070.885   1090776.423  -2914215.641
10 0 59500  25062.000000  0   -6436284.893   1332054.916  -2072410.937
10 0 59500  25182.000000  0   -6606143.488   1554082.422  -1194190.218
10 0 59500  25302.000000  0   -6656978.016   1750903.874   -294969.987
10 0 59500  25422.000000  0   -6588315.825   1916975.987    609438.635
10 0 59500  25542.000000  0   -6401886.026   2047305.441   1503115.132
10 0 59500  25662.000000  0   -6101581.836   2137577.406   2370318.589
10 0 59500  25782.000000  0   -5693378.678   2184270.190   3195774.101
10 0 59500  25902.000000  0   -5185210.400   2184752.246   3964949.782
10 0 59500  26022.000000  0   -4586806.738   2137359.628   4664317.349
10 0 59500  26142.000000  0   -3909498.033   2041452.669   5281591.067
10 0 59500  26262.000000  0   -3165992.636   1897450.781   5805942.078
10 0 59500  26382.000000  0   -2370130.780   1706845.047   6228185.991
10 0 59500  26502.000000  0   -1536619.355   1472187.239   6540938.605
10 0 59500  26622.000000  0    -680755.316   1197056.009   6738738.070
10 0 59500  26742.000000  0     181856.249    886001.838   6818133.219
10 0 59500  26862.000000  0    1035585.774    544471.186   6777739.749
10 0 59500  26982.000000  0    1865061.117    178711.380   6618262.650
10 0 59500  27102.000000  0    2655443.028   -204342.797   6342485.217
10 0 59500  27222.000000  0    3392691.024   -597199.619   5955224.772
10 0 59500  27342.000000  0    4063815.491   -991955.164   5463253.404
10 0 59500  27462.000000  0    4657110.699  -1380450.945   4875185.312
10 0 59500  27582.000000  0    5162365.050  -1754440.969   4201332.105
10 0 59500  27702.000000  0    5571045.659  -2105764.602   3453526.701
10 0 59500  27822.000000  0    5876451.582  -2426522.988   2644916.963
10 0 59500  27942.000000  0    6073831.055  -2709253.990   1789733.296
10 0 59500  28062.000000  0    6160461.496  -2947100.963    903035.115
10 0 59500  28182.000000  0    6135689.638  -3133972.273       438.672
10 0 59500  28302.000000  0    6000928.793  -3264686.173   -902166.090
10 0 59500  28422.000000  0    5759614.794  -3335097.866  -1788905.245
10 0 59500  28542.000000  0    5417119.466  -3342204.429  -2644207.967
10 0 59500  28662.000000  0    4980627.878  -3284226.537  -3453085.426
10 0 59500  28782.000000  0    4458980.692  -3160664.689  -4201396.264
10 0 59500  28902.000000  0    3862486.862  -2972329.512  -4876093.180
10 0 59500  29022.000000  0    3202710.677  -2721344.269  -5465445.752
10 0 59500  29142.000000  0    2492240.899  -2411121.314  -5959234.932
10 0 59500  29262.000000  0    1744447.985  -2046314.927  -6348919.957
10 0 59500  29382.000000  0     973231.143  -1632749.208  -6627776.888
10 0 59500  29502.000000  0     192760.672  -1177322.656  -6791003.547
10 0 59500  29622.000000  0    -582778.322   -687893.397  -6835792.812
10 0 59500  29742.000000  0   -1339437.621   -173145.969  -6761375.075
10 0 59500  29862.000000  0   -2063751.186    357559.267  -6569029.818
10 0 59500  29982.000000  0   -2742969.133    894351.826  -6262065.245
10 0 59500  30102.000000  0   -3365277.521   1427029.690  -5845767.862
10 0 59500  30222.000000  0   -3920002.744   1945248.550  -5327321.969
10 0 59500  30342.000000  0   -4397797.951   2438719.617  -4715697.564
10 0 59500  30462.000000  0   -4790806.138   2897412.921  -4021505.563
10 0 59500  30582.000000  0   -5092796.265   3311760.287  -3256823.300
10 0 59500  30702.000000  0   -5299271.223   3672855.760  -2434992.886
10 0 59500  30822.000000  0   -5407542.968   3972648.624  -1570392.238
10 0 59500  30942.000000  0   -5416773.424   4204123.213   -678183.884
10 0 59500  31062.000000  0   -5327978.807   4361461.282    225954.692
10 0 59500  31182.000000  0   -5143996.580   4440183.013   1126113.907
10 0 59500  31302.000000  0   -4869413.964   4437260.424   2006441.732
10 0 59500  31422.000000  0   -4510460.982   4351201.412   2851431.834
10 0 59500  31542.000000  0   -4074870.703   4182103.410   3646204.470
10 0 59500  31662.000000  0   -3571710.647   3931673.853   4376774.516
10 0 59500  31782.000000  0   -3011190.516   3603217.661   5030300.653
10 0 59500  31902.000000  0   -2404450.041   3201592.276   5595311.707
10 0 59500  32022.000000  0   -1763332.436   2733131.934   6061905.454
10 0 59500  32142.000000  0   -1100148.565   2205542.877   6421917.266
10 0 59500  32262.000000  0    -427437.962   1627771.758   6669055.194
10 0 59500  32382.000000  0     242267.645   1009851.512   6799003.986
10 0 59500  32502.000000  0     896677.710    362725.691   6809495.704
10 0 59500  32622.000000  0    1523967.292   -301944.813   6700346.427
10 0 59500  32742.000000  0    2112989.764   -971991.141   6473460.072
10 0 59500  32862.000000  0    2653474.615  -1634958.591   6132797.528
10 0 59500  32982.000000  0    3136208.326  -2278337.646   5684312.876
10 0 59500  33102.000000  0    3553194.482  -2889801.059   5135854.635
10 0 59500  33222.000000  0    3897790.145  -3457442.007   4497034.612
10 0 59500  33342.000000  0    4164816.352  -3970009.593   3779064.438
10 0 59500  33462.000000  0    4350639.980  -4417136.617   2994561.741
10 0 59500  33582.000000  0    4453225.237  -4789554.421   2157328.771
10 0 59500  33702.000000  0    4472153.001  -5079288.946   1282106.375
10 0 59500  33822.000000  0    4408606.580  -5279833.314    384308.717
10 0 59500  33942.000000  0    4265324.193  -5386291.844   -520255.496
10 0 59500  34062.000000  0    4046521.404  -5395493.397  -1415669.439
10 0 59500  34182.000000  0    3757782.367  -5306069.563  -2286197.735
10 0 59500  34302.000000  0    3405924.408  -5118495.677  -3116569.684
10 0 59500  34422.000000  0    2998839.857  -4835094.464  -3892251.973
10 0 59500  34542.000000  0    2545318.473  -4460003.292  -4599703.961
10 0 59500  34662.000000  0    2054855.844  -3999105.710  -5226611.350
10 0 59500  34782.000000  0    1537453.645  -3459929.309  -5762092.841
10 0 59500  34902.000000  0    1003416.196  -2851515.571  -6196878.780
10 0 59500  35022.000000  0     463146.321  -2184263.321  -6523461.302
10 0 59500  35142.000000  0     -73055.130  -1469747.602  -6736213.209
10 0 59500  35262.000000  0    -595181.347   -720518.383  -6831474.738
10 0 59500  35382.000000  0   -1093701.013     50117.121  -6807609.275
10 0 59500  35502.000000  0   -1559728.211    828325.324  -6665027.625
10 0 59500  35622.000000  0   -1985177.141   1599988.124  -6406181.555
10 0 59500  35742.000000  0   -2362899.258   2350952.619  -6035526.172
10 0 59500  35862.000000  0   -2686802.972   3067285.585  -5559452.567
10 0 59500  35982.000000  0   -2951952.762   3735530.080  -4986188.571
10 0 59500  36102.000000  0   -3154647.284   4342959.596  -4325668.452
10 0 59500  36222.000000  0   -3292473.571   4877824.652  -3589370.227
10 0 59500  36342.000000  0   -3364334.927   5329585.091  -2790123.772
10 0 59500  36462.000000  0   -3370453.604   5689124.849  -1941894.303
10 0 59500  36582.000000  0   -3312347.527   5948945.412  -1059540.772
10 0 59500  36702.000000  0   -3192778.856   6103329.905   -158552.961
10 0 59500  36822.000000  0   -3015678.484   6148473.229    745224.442
10 0 59500  36942.000000  0   -2786046.518   6082577.148   1635879.863
10 0 59500  37062.000000  0   -2509827.610   5905902.408   2497726.213
10 0 59500  37182.000000  0   -2193767.752   5620777.613   3315585.860
10 0 59500  37302.000000  0   -1845257.224   5231567.099   4075063.919
10 0 59500  37422.000000  0   -1472163.067   4744598.715   4762805.664
10 0 59500  37542.000000  0   -1082654.268   4168053.215   5366733.025
10 0 59500  37662.000000  0    -685024.339   3511817.849   5876254.816
10 0 59500  37782.000000  0    -287517.056   2787308.398   6282448.407
10 0 59500  37902.000000  0     101842.738   2007263.581   6578209.747
10 0 59500  38022.000000  0     475409.321   1185517.183   6758371.867
10 0 59500  38142.000000  0     826064.973    336749.713   6819789.439
10 0 59500  38262.000000  0    1147354.233   -523773.270   6761389.541
10 0 59500  38382.000000  0    1433601.997  -1380474.962   6584190.413
10 0 59500  38502.000000  0    1680013.885  -2217748.722   6291284.940
10 0 59500  38622.000000  0    1882757.002  -3020242.654   5887790.765
10 0 59500  38742.000000  0    2039020.016  -3773143.270   5380765.908
99
